IRIDIUM 26              
1 24903U 97043A   25270.88281296  .00000851  00000+0  27944-3 0  9993
2 24903  86.3917  67.4398 0002274  91.4943 268.6515 14.37222587471495
IRIDIUM 22              
1 24907U 97043E   25270.89775461  .00000767  00000+0  25730-3 0  9997
2 24907  86.3915  71.0639 0002162  87.6839 272.4605 14.36026802471510
DUMMY MASS 1            
1 24925U 97048A   25270.90454610  .00000870  00000+0  93801-4 0  9994
2 24925  86.3290  87.8072 0008259 129.1955 231.0005 14.87068449520391
DUMMY MASS 2            
1 24926U 97048B   25270.88382020  .00000855  00000+0  92726-4 0  9995
2 24926  86.3291  89.4450 0008670 140.0651 220.1213 14.86819545520168
IRIDIUM 29              
1 24944U 97051A   25270.60518204  .00000797  00000+0  26484-3 0  9996
2 24944  86.3901 100.9250 0001939  84.1037 276.0381 14.36547315467973
IRIDIUM 33              
1 24946U 97051C   25270.90919164  .00000579  00000+0  19678-3 0  9996
2 24946  86.3816 100.0661 0009912 100.1239 260.1076 14.34950433467476
IRIDIUM 28              
1 24948U 97051E   25270.93166278  .00000739  00000+0  24059-3 0  9998
2 24948  86.3905  98.2424 0002615  92.2833 267.8664 14.37454384468606
IRIDIUM 36              
1 24967U 97056C   25270.67001509  .00000620  00000+0  19984-3 0  9990
2 24967  86.3960 129.9789 0002322  83.3831 276.7631 14.37681722466944
